COMMENT,ORIGINATOR,NORAD_CAT_ID,OBJECT_NAME,OBJECT_TYPE,CLASSIFICATION_TYPE,INTLDES,EPOCH,EPOCH_MICROSECONDS,MEAN_MOTION,ECCENTRICITY,INCLINATION,RA_OF_ASC_NODE,ARG_OF_PERICENTER,MEAN_ANOMALY,EPHEMERIS_TYPE,ELEMENT_SET_NO,REV_AT_EPOCH,BSTAR,MEAN_MOTION_DOT,MEAN_MOTION_DDOT,FILE,TLE_LINE0,TLE_LINE1,TLE_LINE2,OBJECT_ID,OBJECT_NUMBER,SEMIMAJOR_AXIS,PERIOD,APOGEE,PERIGEE,DECAYED
GENERATED VIA SPACETRACK.ORG API,18 SPCS,4084,SL-8 DEB,DEBRIS,U,69070C,2024-06-20 13:11:58,861248,14.46583481,0.0022828,74.0671,230.6643,306.9354,52.9714,0,999,89067,5.4898e-05,1.71e-06,0,4346663,0 SL-8 DEB,1 04084U 69070C   24172.54998682  .00000171  00000-0  54898-4 0  9992,2 04084  74.0671 230.6643 0022828 306.9354  52.9714 14.46583481890671,1969-070C,4084,7114.966,99.545,753.073,720.589,0
GENERATED VIA SPACETRACK.ORG API,18 SPCS,4084,SL-8 DEB,DEBRIS,U,69070C,2024-06-20 16:31:09,103584,14.46583505,0.0022833,74.0671,230.4065,306.6698,53.2362,0,999,89069,5.3577e-05,1.67e-06,0,4347274,0 SL-8 DEB,1 04084U 69070C   24172.68829981  .00000167  00000-0  53577-4 0  9990,2 04084  74.0671 230.4065 0022833 306.6698  53.2362 14.46583505890693,1969-070C,4084,7114.966,99.545,753.077,720.586,0
GENERATED VIA SPACETRACK.ORG API,18 SPCS,4084,SL-8 DEB,DEBRIS,U,69070C,2024-06-21 12:26:10,522176,14.46583926,0.0022855,74.067,228.8597,304.9819,54.9193,0,999,89079,5.9165e-05,1.87e-06,0,4347668,0 SL-8 DEB,1  4084U 69070C   24173.51817734  .00000187  00000-0  59165-4 0  9997,2  4084  74.0670 228.8597 0022855 304.9819  54.9193 14.46583926890791,1969-070C,4084,7114.965,99.545,753.091,720.568,0
GENERATED VIA SPACETRACK.ORG API,18 SPCS,4084,SL-8 DEB,DEBRIS,U,69070C,2024-06-21 14:05:45,640320,14.46583946,0.0022856,74.067,228.7308,304.8413,55.0596,0,999,89082,5.8809e-05,1.86e-06,0,4347757,0 SL-8 DEB,1 04084U 69070C   24173.58733380  .00000186  00000-0  58809-4 0  9991,2 04084  74.0670 228.7308 0022856 304.8413  55.0596 14.46583946890825,1969-070C,4084,7114.965,99.545,753.092,720.568,0
GENERATED VIA SPACETRACK.ORG API,18 SPCS,4084,SL-8 DEB,DEBRIS,U,69070C,2024-06-22 13:19:57,278784,14.46584288,0.0022888,74.067,226.9263,302.8757,57.0199,0,999,89096,5.7147e-05,1.8e-06,0,4348629,0 SL-8 DEB,1 04084U 69070C   24174.55552406  .00000180  00000-0  57147-4 0  9995,2 04084  74.0670 226.9263 0022888 302.8757  57.0199 14.46584288890965,1969-070C,4084,7114.964,99.545,753.113,720.544,0
GENERATED VIA SPACETRACK.ORG API,18 SPCS,4084,SL-8 DEB,DEBRIS,U,69070C,2024-06-23 12:34:08,888736,14.46584634,0.0022914,74.0669,225.1217,300.8955,58.995,0,999,89108,5.3115e-05,1.65e-06,0,4349241,0 SL-8 DEB,1  4084U 69070C   24175.52371399  .00000165  00000-0  53115-4 0  9997,2  4084  74.0669 225.1217 0022914 300.8955  58.9950 14.46584634891085,1969-070C,4084,7114.962,99.545,753.131,720.524,0
GENERATED VIA SPACETRACK.ORG API,18 SPCS,4084,SL-8 DEB,DEBRIS,U,69070C,2024-06-23 14:13:44,3424,14.46584658,0.0022918,74.0669,224.9928,300.754,59.1362,0,999,89111,5.2885e-05,1.64e-06,0,4349479,0 SL-8 DEB,1 04084U 69070C   24175.59287041  .00000164  00000-0  52885-4 0  9996,2 04084  74.0669 224.9928 0022918 300.7540  59.1362 14.46584658891114,1969-070C,4084,7114.962,99.545,753.133,720.521,0
GENERATED VIA SPACETRACK.ORG API,18 SPCS,4084,SL-8 DEB,DEBRIS,U,69070C,2024-06-23 15:53:19,117248,14.46584688,0.002292,74.0669,224.8639,300.6157,59.2741,0,999,89112,5.2498e-05,1.63e-06,0,4349781,0 SL-8 DEB,1 04084U 69070C   24175.66202682  .00000163  00000-0  52498-4 0  9991,2 04084  74.0669 224.8639 0022920 300.6157  59.2741 14.46584688891124,1969-070C,4084,7114.962,99.545,753.135,720.52,0
GENERATED VIA SPACETRACK.ORG API,18 SPCS,4084,SL-8 DEB,DEBRIS,U,69070C,2024-06-24 13:27:55,597824,14.46585014,0.0022945,74.0668,223.1883,298.7679,61.1174,0,999,89125,5.0704e-05,1.56e-06,0,4350351,0 SL-8 DEB,1 04084U 69070C   24176.56106016  .00000156  00000-0  50704-4 0  9995,2 04084  74.0668 223.1883 0022945 298.7679  61.1174 14.46585014891259,1969-070C,4084,7114.961,99.545,753.151,720.501,0
GENERATED VIA SPACETRACK.ORG API,18 SPCS,4084,SL-8 DEB,DEBRIS,U,69070C,2024-06-25 12:42:07,172352,14.46585413,0.002297,74.0667,221.3838,296.7917,63.0892,0,999,89137,5.0206e-05,1.54e-06,0,4350964,0 SL-8 DEB,1  4084U 69070C   24177.52924968  .00000154  00000-0  50206-4 0  9991,2  4084  74.0667 221.3838 0022970 296.7917  63.0892 14.46585413891373,1969-070C,4084,7114.96,99.545,753.168,720.482,0
GENERATED VIA SPACETRACK.ORG API,18 SPCS,4084,SL-8 DEB,DEBRIS,U,69070C,2024-06-25 14:21:42,285312,14.46585426,0.0022974,74.0666,221.2549,296.6438,63.2367,0,999,89140,4.9417e-05,1.52e-06,0,4351124,0 SL-8 DEB,1 04084U 69070C   24177.59840608  .00000152  00000-0  49417-4 0  9996,2 04084  74.0666 221.2549 0022974 296.6438  63.2367 14.46585426891408,1969-070C,4084,7114.96,99.545,753.171,720.479,0
GENERATED VIA SPACETRACK.ORG API,18 SPCS,4084,SL-8 DEB,DEBRIS,U,69070C,2024-06-26 11:56:18,723552,14.46585922,0.0022991,74.0665,219.5791,294.83,65.0467,0,999,89153,5.4111e-05,1.69e-06,0,4351883,0 SL-8 DEB,1 04084U 69070C   24178.49743893  .00000169  00000-0  54111-4 0  9999,2 04084  74.0665 219.5791 0022991 294.8300  65.0467 14.46585922891539,1969-070C,4084,7114.958,99.545,753.181,720.465,0
GENERATED VIA SPACETRACK.ORG API,18 SPCS,4084,SL-8 DEB,DEBRIS,U,69070C,2024-06-27 12:50:05,380800,14.4658641,0.0023018,74.0664,217.6457,292.7606,67.112,0,999,89166,5.8451e-05,1.84e-06,0,4352550,0 SL-8 DEB,1  4084U 69070C   24179.53478450  .00000184  00000-0  58451-4 0  9997,2  4084  74.0664 217.6457 0023018 292.7606  67.1120 14.46586410891669,1969-070C,4084,7114.957,99.545,753.199,720.444,0
GENERATED VIA SPACETRACK.ORG API,18 SPCS,4084,SL-8 DEB,DEBRIS,U,69070C,2024-06-27 12:50:05,380800,14.4658641,0.0023018,74.0664,217.6457,292.7606,67.112,0,999,89168,5.8451e-05,1.84e-06,0,4353025,0 SL-8 DEB,1 04084U 69070C   24179.53478450  .00000184  00000-0  58451-4 0  9997,2 04084  74.0664 217.6457 0023018 292.7606  67.1120 14.46586410891681,1969-070C,4084,7114.957,99.545,753.199,720.444,0
GENERATED VIA SPACETRACK.ORG API,18 SPCS,4084,SL-8 DEB,DEBRIS,U,69070C,2024-06-28 13:43:51,982752,14.46587267,0.0023025,74.0662,215.7123,290.669,69.2,0,999,89183,7.5655e-05,2.46e-06,0,4353615,0 SL-8 DEB,1 04084U 69070C   24180.57212943  .00000246  00000-0  75655-4 0  9990,2 04084  74.0662 215.7123 0023025 290.6690  69.2000 14.46587267891834,1969-070C,4084,7114.954,99.545,753.201,720.437,0
GENERATED VIA SPACETRACK.ORG API,18 SPCS,4084,SL-8 DEB,DEBRIS,U,69070C,2024-06-29 12:58:03,464832,14.46587846,0.002303,74.0661,213.9077,288.7009,71.165,0,999,89195,8.1945e-05,2.69e-06,0,4354423,0 SL-8 DEB,1  4084U 69070C   24181.54031788  .00000269  00000-0  81945-4 0  9998,2  4084  74.0661 213.9077 0023030 288.7009  71.1650 14.46587846891958,1969-070C,4084,7114.952,99.545,753.203,720.431,0
GENERATED VIA SPACETRACK.ORG API,18 SPCS,4084,SL-8 DEB,DEBRIS,U,69070C,2024-06-29 12:58:03,464832,14.46587846,0.002303,74.0661,213.9077,288.7009,71.165,0,999,89197,8.1945e-05,2.69e-06,0,4354599,0 SL-8 DEB,1 04084U 69070C   24181.54031788  .00000269  00000-0  81945-4 0  9998,2 04084  74.0661 213.9077 0023030 288.7009  71.1650 14.46587846891970,1969-070C,4084,7114.952,99.545,753.203,720.431,0
GENERATED VIA SPACETRACK.ORG API,18 SPCS,4084,SL-8 DEB,DEBRIS,U,69070C,2024-06-29 19:36:23,883840,14.46587964,0.0023036,74.0661,213.3921,288.1567,71.7083,0,999,89201,8.0965e-05,2.66e-06,0,4354925,0 SL-8 DEB,1 04084U 69070C   24181.81694310  .00000266  00000-0  80965-4 0  9992,2 04084  74.0661 213.3921 0023036 288.1567  71.7083 14.46587964892014,1969-070C,4084,7114.951,99.545,753.206,720.426,0
GENERATED VIA SPACETRACK.ORG API,18 SPCS,4084,SL-8 DEB,DEBRIS,U,69070C,2024-06-30 12:12:14,919264,14.46588217,0.002304,74.066,212.1031,286.7434,73.1197,0,999,89211,7.6122e-05,2.48e-06,0,4355600,0 SL-8 DEB,1 04084U 69070C   24182.50850601  .00000248  00000-0  76122-4 0  9996,2 04084  74.0660 212.1031 0023040 286.7434  73.1197 14.46588217892119,1969-070C,4084,7114.951,99.545,753.209,720.423,0
GENERATED VIA SPACETRACK.ORG API,18 SPCS,4084,SL-8 DEB,DEBRIS,U,69070C,2024-06-30 13:51:50,20992,14.4658826,0.002304,74.066,211.9742,286.6053,73.2576,0,999,89212,7.5994e-05,2.48e-06,0,4355944,0 SL-8 DEB,1 04084U 69070C   24182.57766228  .00000248  00000-0  75994-4 0  9990,2 04084  74.0660 211.9742 0023040 286.6053  73.2576 14.46588260892122,1969-070C,4084,7114.951,99.545,753.208,720.423,0
GENERATED VIA SPACETRACK.ORG API,18 SPCS,4084,SL-8 DEB,DEBRIS,U,69070C,2024-07-01 13:06:01,446048,14.4658872,0.0023053,74.0659,210.1695,284.6446,75.2157,0,999,89224,7.325e-05,2.38e-06,0,4356309,0 SL-8 DEB,1  4084U 69070C   24183.54585007  .00000238  00000-0  73250-4 0  9994,2  4084  74.0659 210.1695 0023053 284.6446  75.2157 14.46588720892247,1969-070C,4084,7114.949,99.545,753.216,720.412,0
GENERATED VIA SPACETRACK.ORG API,18 SPCS,4084,SL-8 DEB,DEBRIS,U,69070C,2024-07-01 13:06:01,446048,14.4658872,0.0023053,74.0659,210.1695,284.6446,75.2157,0,999,89226,7.325e-05,2.38e-06,0,4356582,0 SL-8 DEB,1 04084U 69070C   24183.54585007  .00000238  00000-0  73250-4 0  9994,2 04084  74.0659 210.1695 0023053 284.6446  75.2157 14.46588720892269,1969-070C,4084,7114.949,99.545,753.216,720.412,0
GENERATED VIA SPACETRACK.ORG API,18 SPCS,4084,SL-8 DEB,DEBRIS,U,69070C,2024-07-01 19:44:21,847776,14.46588883,0.0023055,74.0659,209.6539,284.0938,75.7658,0,999,89230,7.3749e-05,2.4e-06,0,4357216,0 SL-8 DEB,1 04084U 69070C   24183.82247509  .00000240  00000-0  73749-4 0  9993,2 04084  74.0659 209.6539 0023055 284.0938  75.7658 14.46588883892307,1969-070C,4084,7114.948,99.545,753.217,720.41,0
GENERATED VIA SPACETRACK.ORG API,18 SPCS,4084,SL-8 DEB,DEBRIS,U,69070C,2024-07-02 12:20:12,842592,14.46589207,0.0023067,74.0659,208.3649,282.6914,77.1666,0,999,89240,7.0547e-05,2.28e-06,0,4357586,0 SL-8 DEB,1 04084U 69070C   24184.51403753  .00000228  00000-0  70547-4 0  9994,2 04084  74.0659 208.3649 0023067 282.6914  77.1666 14.46589207892403,1969-070C,4084,7114.947,99.545,753.224,720.4,0
